start=new Date('2023-04-08T00:00:00.000Z').valueOf();
sats=[{"TLE_LINE2":"2 45409  53.0543 247.8235 0001151  59.6669 300.4434 15.06400569169004","ARG_OF_PERICENTER":"59.6669","BSTAR":"0.00156460000000","REV_AT_EPOCH":"16900","ELEMENT_SET_NO":"999","TLE_LINE1":"1 45409U 20019BB  23097.40900186  .00023100  00000-0  15646-2 0  9993","EPHEMERIS_TYPE":"0","PERIOD":"95.592","MEAN_MOTION":"15.06400569","REF_FRAME":"TEME","OBJECT_TYPE":"PAYLOAD","TIME_SYSTEM":"UTC","CENTER_NAME":"EARTH","GP_ID":"229679991","PERIAPSIS":"546.415","MEAN_ANOMALY":"300.4434","INCLINATION":"53.0543","NORAD_CAT_ID":"45409","EPOCH":"2023-04-07T09:48:57.760704","FILE":"3882626","MEAN_MOTION_DOT":"0.00023100","MEAN_MOTION_DDOT":"0.0000000000000","APOAPSIS":"548.009","OBJECT_NAME":"STARLINK-1282","MEAN_ELEMENT_THEORY":"SGP4","CLASSIFICATION_TYPE":"U","RA_OF_ASC_NODE":"247.8235","COUNTRY_CODE":"US","LAUNCH_DATE":"2020-03-18","SEMIMAJOR_AXIS":"6925.347","OBJECT_ID":"2020-019BB","ECCENTRICITY":"0.00011510","DECAY_DATE":null,"SITE":"AFETR","RCS_SIZE":"LARGE"},{"REV_AT_EPOCH":"16900","ELEMENT_SET_NO":"999","TLE_LINE1":"1 45411U 20019BD  23097.42374010  .00027512  00000-0  18579-2 0  9998","EPHEMERIS_TYPE":"0","PERIOD":"95.591","MEAN_MOTION":"15.06415369","REF_FRAME":"TEME","OBJECT_TYPE":"PAYLOAD","TIME_SYSTEM":"UTC","BSTAR":"0.00185790000000","TLE_LINE2":"2 45411  53.0535 247.7623 0001302  51.1706 308.9399 15.06415369169002","ARG_OF_PERICENTER":"51.1706","MEAN_ELEMENT_THEORY":"SGP4","OBJECT_NAME":"STARLINK-1293","CLASSIFICATION_TYPE":"U","RA_OF_ASC_NODE":"247.7623","SEMIMAJOR_AXIS":"6925.301","OBJECT_ID":"2020-019BD","COUNTRY_CODE":"US","LAUNCH_DATE":"2020-03-18","RCS_SIZE":"LARGE","DECAY_DATE":null,"ECCENTRICITY":"0.00013020","SITE":"AFETR","CENTER_NAME":"EARTH","GP_ID":"229692450","INCLINATION":"53.0535","PERIAPSIS":"546.265","MEAN_ANOMALY":"308.9399","EPOCH":"2023-04-07T10:10:11.144640","NORAD_CAT_ID":"45411","MEAN_MOTION_DDOT":"0.0000000000000","APOAPSIS":"548.068","FILE":"3882798","MEAN_MOTION_DOT":"0.00027512"},{"ARG_OF_PERICENTER":"86.7737","TLE_LINE2":"2 45412  53.0561 247.9099 0001190  86.7737 273.3389 15.06404957168996","BSTAR":"0.00152730000000","MEAN_MOTION":"15.06404957","REF_FRAME":"TEME","PERIOD":"95.592","TLE_LINE1":"1 45412U 20019BE  23097.39055877  .00022544  00000-0  15273-2 0  9990","EPHEMERIS_TYPE":"0","ELEMENT_SET_NO":"999","REV_AT_EPOCH":"16899","TIME_SYSTEM":"UTC","OBJECT_TYPE":"PAYLOAD","PERIAPSIS":"546.374","MEAN_ANOMALY":"273.3389","INCLINATION":"53.0561","GP_ID":"229680988","CENTER_NAME":"EARTH","MEAN_MOTION_DOT":"0.00022544","FILE":"3882626","APOAPSIS":"548.022","MEAN_MOTION_DDOT":"0.0000000000000","NORAD_CAT_ID":"45412","EPOCH":"2023-04-07T09:22:24.277728","RA_OF_ASC_NODE":"247.9099","CLASSIFICATION_TYPE":"U","OBJECT_NAME":"STARLINK-1296","MEAN_ELEMENT_THEORY":"SGP4","SITE":"AFETR","DECAY_DATE":null,"ECCENTRICITY":"0.00011900","RCS_SIZE":"LARGE","LAUNCH_DATE":"2020-03-18","COUNTRY_CODE":"US","OBJECT_ID":"2020-019BE","SEMIMAJOR_AXIS":"6925.333"},{"SITE":"AFETR","DECAY_DATE":null,"ECCENTRICITY":"0.00015050","RCS_SIZE":"LARGE","COUNTRY_CODE":"US","LAUNCH_DATE":"2020-03-18","SEMIMAJOR_AXIS":"6925.222","OBJECT_ID":"2020-019BF","CLASSIFICATION_TYPE":"U","RA_OF_ASC_NODE":"245.9912","OBJECT_NAME":"STARLINK-1298","MEAN_ELEMENT_THEORY":"SGP4","FILE":"3882799","MEAN_MOTION_DOT":"0.00026316","MEAN_MOTION_DDOT":"0.0000000000000","APOAPSIS":"548.129","NORAD_CAT_ID":"45413","EPOCH":"2023-04-07T19:38:05.414208","MEAN_ANOMALY":"305.6749","PERIAPSIS":"546.045","INCLINATION":"53.0553","GP_ID":"229692462","CENTER_NAME":"EARTH","TIME_SYSTEM":"UTC","OBJECT_TYPE":"PAYLOAD","PERIOD":"95.590","REF_FRAME":"TEME","MEAN_MOTION":"15.06441259","REV_AT_EPOCH":"16915","EPHEMERIS_TYPE":"0","TLE_LINE1":"1 45413U 20019BF  23097.81811822  .00026316  00000-0  17770-2 0  9993","ELEMENT_SET_NO":"999","TLE_LINE2":"2 45413  53.0553 245.9912 0001505  54.4380 305.6749 15.06441259169150","ARG_OF_PERICENTER":"54.4380","BSTAR":"0.00177700000000"},{"TLE_LINE2":"2 45414  53.0522 247.8369 0000894  53.8662 306.2410 15.06417999168986","ARG_OF_PERICENTER":"53.8662","BSTAR":"0.00180790000000","TIME_SYSTEM":"UTC","OBJECT_TYPE":"PAYLOAD","PERIOD":"95.591","REF_FRAME":"TEME","MEAN_MOTION":"15.06417999","REV_AT_EPOCH":"16898","ELEMENT_SET_NO":"999","TLE_LINE1":"1 45414U 20019BG  23097.40529920  .00026763  00000-0  18079-2 0  9993","EPHEMERIS_TYPE":"0","FILE":"3882626","MEAN_MOTION_DOT":"0.00026763","MEAN_MOTION_DDOT":"0.0000000000000","APOAPSIS":"547.778","NORAD_CAT_ID":"45414","EPOCH":"2023-04-07T09:43:37.850880","MEAN_ANOMALY":"306.2410","PERIAPSIS":"546.539","INCLINATION":"53.0522","GP_ID":"229680492","CENTER_NAME":"EARTH","DECAY_DATE":null,"ECCENTRICITY":"0.00008940","SITE":"AFETR","RCS_SIZE":"LARGE","COUNTRY_CODE":"US","LAUNCH_DATE":"2020-03-18","SEMIMAJOR_AXIS":"6925.293","OBJECT_ID":"2020-019BG","CLASSIFICATION_TYPE":"U","RA_OF_ASC_NODE":"247.8369","OBJECT_NAME":"STARLINK-1309","MEAN_ELEMENT_THEORY":"SGP4"},{"TIME_SYSTEM":"UTC","OBJECT_TYPE":"PAYLOAD","MEAN_MOTION":"15.06432704","REF_FRAME":"TEME","PERIOD":"95.590","TLE_LINE1":"1 45415U 20019BH  23097.69648377  .00028179  00000-0  19014-2 0  9996","ELEMENT_SET_NO":"999","EPHEMERIS_TYPE":"0","REV_AT_EPOCH":"16906","ARG_OF_PERICENTER":"52.5085","TLE_LINE2":"2 45415  53.0524 246.5382 0001205  52.5085 307.6013 15.06432704169067","BSTAR":"0.00190140000000","DECAY_DATE":null,"SITE":"AFETR","ECCENTRICITY":"0.00012050","RCS_SIZE":"LARGE","LAUNCH_DATE":"2020-03-18","COUNTRY_CODE":"US","OBJECT_ID":"2020-019BH","SEMIMAJOR_AXIS":"6925.248","RA_OF_ASC_NODE":"246.5382","CLASSIFICATION_TYPE":"U","OBJECT_NAME":"STARLINK-1316","MEAN_ELEMENT_THEORY":"SGP4","MEAN_MOTION_DOT":"0.00028179","FILE":"3882801","APOAPSIS":"547.948","MEAN_MOTION_DDOT":"0.0000000000000","NORAD_CAT_ID":"45415","EPOCH":"2023-04-07T16:42:56.197728","PERIAPSIS":"546.279","INCLINATION":"53.0524","MEAN_ANOMALY":"307.6013","GP_ID":"229692144","CENTER_NAME":"EARTH"},{"COUNTRY_CODE":"US","LAUNCH_DATE":"2020-03-18","SEMIMAJOR_AXIS":"6925.225","OBJECT_ID":"2020-019BJ","SITE":"AFETR","DECAY_DATE":null,"ECCENTRICITY":"0.00007660","RCS_SIZE":"LARGE","OBJECT_NAME":"STARLINK-1318","MEAN_ELEMENT_THEORY":"SGP4","CLASSIFICATION_TYPE":"U","RA_OF_ASC_NODE":"246.0897","NORAD_CAT_ID":"45416","EPOCH":"2023-04-07T19:06:14.412960","FILE":"3882801","MEAN_MOTION_DOT":"0.00024083","MEAN_MOTION_DDOT":"0.0000000000000","APOAPSIS":"547.621","GP_ID":"229692154","CENTER_NAME":"EARTH","MEAN_ANOMALY":"249.8562","PERIAPSIS":"546.560","INCLINATION":"53.0535","OBJECT_TYPE":"PAYLOAD","TIME_SYSTEM":"UTC","REV_AT_EPOCH":"16906","EPHEMERIS_TYPE":"0","TLE_LINE1":"1 45416U 20019BJ  23097.79600015  .00024083  00000-0  16284-2 0  9991","ELEMENT_SET_NO":"999","PERIOD":"95.590","REF_FRAME":"TEME","MEAN_MOTION":"15.06440208","TLE_LINE2":"2 45416  53.0535 246.0897 0000766 110.2509 249.8562 15.06440208169064","ARG_OF_PERICENTER":"110.2509","BSTAR":"0.00162840000000"},{"GP_ID":"229679742","CENTER_NAME":"EARTH","INCLINATION":"53.0525","PERIAPSIS":"546.478","MEAN_ANOMALY":"284.2483","NORAD_CAT_ID":"45417","EPOCH":"2023-04-07T12:50:44.335968","MEAN_MOTION_DOT":"0.00019634","FILE":"3882626","APOAPSIS":"547.877","MEAN_MOTION_DDOT":"0.0000000000000","OBJECT_NAME":"STARLINK-1286","MEAN_ELEMENT_THEORY":"SGP4","RA_OF_ASC_NODE":"277.2618","CLASSIFICATION_TYPE":"U","LAUNCH_DATE":"2020-03-18","COUNTRY_CODE":"US","OBJECT_ID":"2020-019BK","SEMIMAJOR_AXIS":"6925.312","ECCENTRICITY":"0.00010100","DECAY_DATE":null,"SITE":"AFETR","RCS_SIZE":"LARGE","ARG_OF_PERICENTER":"75.8618","TLE_LINE2":"2 45417  53.0525 277.2618 0001010  75.8618 284.2483 15.06411791168879","BSTAR":"0.00133290000000","TLE_LINE1":"1 45417U 20019BK  23097.53523537  .00019634  00000-0  13329-2 0  9990","EPHEMERIS_TYPE":"0","ELEMENT_SET_NO":"999","REV_AT_EPOCH":"16887","REF_FRAME":"TEME","MEAN_MOTION":"15.06411791","PERIOD":"95.591","OBJECT_TYPE":"PAYLOAD","TIME_SYSTEM":"UTC"},{"GP_ID":"229679992","CENTER_NAME":"EARTH","MEAN_ANOMALY":"123.4495","PERIAPSIS":"474.375","INCLINATION":"52.9872","EPOCH":"2023-04-07T11:31:53.395968","NORAD_CAT_ID":"45418","MEAN_MOTION_DDOT":"0.0000000000000","APOAPSIS":"483.053","FILE":"3882626","MEAN_MOTION_DOT":"0.00096886","MEAN_ELEMENT_THEORY":"SGP4","OBJECT_NAME":"STARLINK-1299","CLASSIFICATION_TYPE":"U","RA_OF_ASC_NODE":"284.0176","SEMIMAJOR_AXIS":"6856.849","OBJECT_ID":"2020-019BL","COUNTRY_CODE":"US","LAUNCH_DATE":"2020-03-18","RCS_SIZE":"LARGE","DECAY_DATE":null,"SITE":"AFETR","ECCENTRICITY":"0.00063280","BSTAR":"0.00335790000000","TLE_LINE2":"2 45418  52.9872 284.0176 0006328 236.5898 123.4495 15.29029416168456","ARG_OF_PERICENTER":"236.5898","REV_AT_EPOCH":"16845","ELEMENT_SET_NO":"999","TLE_LINE1":"1 45418U 20019BL  23097.48047912  .00096886  00000-0  33579-2 0  9996","EPHEMERIS_TYPE":"0","PERIOD":"94.177","MEAN_MOTION":"15.29029416","REF_FRAME":"TEME","OBJECT_TYPE":"PAYLOAD","TIME_SYSTEM":"UTC"},{"ARG_OF_PERICENTER":"70.0735","TLE_LINE2":"2 45419  53.0545 277.2751 0001027  70.0735 290.0365 15.06401122168620","BSTAR":"0.00065393000000","TLE_LINE1":"1 45419U 20019BM  23097.53154422  .00009472  00000-0  65393-3 0  9993","ELEMENT_SET_NO":"999","EPHEMERIS_TYPE":"0","REV_AT_EPOCH":"16862","MEAN_MOTION":"15.06401122","REF_FRAME":"TEME","PERIOD":"95.592","OBJECT_TYPE":"PAYLOAD","TIME_SYSTEM":"UTC","CENTER_NAME":"EARTH","GP_ID":"229681242","PERIAPSIS":"546.499","INCLINATION":"53.0545","MEAN_ANOMALY":"290.0365","NORAD_CAT_ID":"45419","EPOCH":"2023-04-07T12:45:25.420608","MEAN_MOTION_DOT":"0.00009472","FILE":"3882626","APOAPSIS":"547.921","MEAN_MOTION_DDOT":"0.0000000000000","OBJECT_NAME":"STARLINK-1308","MEAN_ELEMENT_THEORY":"SGP4","RA_OF_ASC_NODE":"277.2751","CLASSIFICATION_TYPE":"U","LAUNCH_DATE":"2020-03-18","COUNTRY_CODE":"US","OBJECT_ID":"2020-019BM","SEMIMAJOR_AXIS":"6925.345","ECCENTRICITY":"0.00010270","DECAY_DATE":null,"SITE":"AFETR","RCS_SIZE":"LARGE"}];
